{"type": "Feature", "geometry": {"type": "Point", "coordinates": ["-73.61576533067957", "5.934299471956952"]}, "properties": {"temperature": "22", "pressure": "1,015", "localTime": "Mon Nov 27 2023 10:17:53 GMT-0500 (hora est\u00e1ndar de Colombia)", "julianTime": "1701098273", "utcTime": "10:18:02 AM", "altitude": "500.39", "elevation": "-7.1", "TLE": {"Norad_Id": 56205, "International_Classification": "Unclassified", "International_Designation": "23054AD", "Epoch_Time_(ISO)": "2023-11-27T02:50:35Z", "First_Derivative_Mean_Motion": 0.00018178000000000004, "Second_Derivative_Mean_Motion": 0.0, "Inclination": 97.38820000000001, "Right_Ascension_of_the_Ascending_Node": 224.4802, "Eccentricity": 0.0014266, "Argument_of_Perigee": 146.2165, "Mean_Anomaly": 213.9986, "Mean_Motion": 15.281353, "Revolution_Number_at_Epoch": 3503}}}